STARLINK-34122          
1 64117U 25110X   26174.50348426  .00016774  00000+0  55081-3 0  9996
2 64117  53.1576 254.5158 0001085  77.5152 282.5970 15.31715071 62089
STARLINK-33964          
1 64118U 25110Y   26174.92331740  .00013009  00000+0  43014-3 0  9995
2 64118  53.1566 252.8679 0001539  59.4395 300.6758 15.31708755 62155
STARLINK-34160          
1 64119U 25110Z   26174.48975968  .00016244  00000+0  49071-3 0  9996
2 64119  53.1585 250.1611 0000943  80.9706 279.1404 15.34409531 62158
STARLINK-34151          
1 64120U 25110AA  26174.92419771  .00028762  00000+0  95724-3 0  9996
2 64120  53.1595 253.5848 0000840  51.3170 308.7906 15.30943452 62149
STARLINK-34189          
1 64121U 25110AB  26174.92568886  .00025657  00000+0  87544-3 0  9990
2 64121  53.1578 253.5920 0001020  88.1620 271.9498 15.30198287 62146
STARLINK-33991          
1 64122U 25110AC  26174.95122995  .00014183  00000+0  46766-3 0  9994
2 64122  53.1578 252.3349 0001513  55.0239 305.0904 15.31718180 62158
STARLINK-11727 [DTC]    
1 64123U 25111A   26174.98881231  .00217572  00000+0  16435-2 0  9990
2 64123  43.0011  53.4352 0002763 260.2081  99.8474 15.71005745 63359
STARLINK-11724 [DTC]    
1 64124U 25111B   26174.95695794  .00160521  00000+0  12264-2 0  9992
2 64124  43.0003  53.1771 0001180 250.1293 109.9447 15.70919899 63354
STARLINK-11725 [DTC]    
1 64125U 25111C   26174.08272398  .00188473  00000+0  14372-2 0  9996
2 64125  42.9999  58.6715 0001415 260.2888  99.7819 15.70874674 63213
STARLINK-11717 [DTC]    
1 64126U 25111D   26174.97819319  .00237733  00000+0  18022-2 0  9995
2 64126  43.0011  53.3464 0002237 277.5397  82.5216 15.70860007 63309
STARLINK-11721 [DTC]    
1 64127U 25111E   26174.94103608  .00166105  00000+0  12653-2 0  9998
2 64127  42.9977  53.0499 0000632 242.8482 117.2322 15.70970515 63356
STARLINK-11722 [DTC]    
1 64128U 25111F   26174.96226482  .00189457  00000+0  14452-2 0  9991
2 64128  43.0000  53.2178 0001064 263.8409  96.2337 15.70862516 63302
STARLINK-11679 [DTC]    
1 64129U 25111G   26174.94633730  .00146825  00000+0  11269-2 0  9993
2 64129  43.0031  53.0899 0001378 250.0544 110.0176 15.70855870 63357
STARLINK-11735 [DTC]    
1 64130U 25111H   26174.96757691  .00230622  00000+0  17489-2 0  9999
2 64130  43.0014  53.2594 0006058 284.4206  75.5989 15.70857955 63207
STARLINK-11720 [DTC]    
1 64131U 25111J   26174.95164737  .00175331  00000+0  13363-2 0  9994
2 64131  43.0003  53.1311 0001350 250.8530 109.2192 15.70928539 63308
STARLINK-11718 [DTC]    
1 64132U 25111K   26174.66668981 -.00086969  00000+0 -68061-3 0  9999
2 64132  43.0012  55.3828 0001782 254.3933  76.7020 15.70865453  5849
STARLINK-11716 [DTC]    
1 64133U 25111L   26174.02975484  .00188397  00000+0  14367-2 0  9994
2 64133  43.0015  59.1328 0002309 266.6610  93.3993 15.70872070 63250
STARLINK-11714 [DTC]    
1 64134U 25111M   26174.93571764  .00150327  00000+0  11500-2 0  9996
2 64134  42.9982  53.0035 0001315 256.4880 103.5841 15.70922591 63353
STARLINK-11712 [DTC]    
1 64135U 25111N   26174.04037423  .00180816  00000+0  13806-2 0  9995
2 64135  43.0002  59.2196 0001968 270.6044  89.4598 15.70866895 63208
STARLINK-34254          
1 64136U 25111P   26174.52838801  .00010667  00000+0  39637-3 0  9995
2 64136  43.0030 199.8437 0002224 287.1922  72.8686 15.27597947 61655
STARLINK-34230          
1 64137U 25111Q   26175.25002315  .00160768  17572-4  52073-3 0  9994
2 64137  42.9799 154.9389 0023446 139.0033  64.2023 15.89693514  5991
STARLINK-34129          
1 64138U 25111R   26174.76438620  .00004545  00000+0  17456-3 0  9991
2 64138  42.9989 199.0299 0001378 272.9643  87.1051 15.27583279 61734
STARLINK-34212          
1 64139U 25111S   26174.34251169  .00011132  00000+0  41326-3 0  9990
2 64139  42.9993 201.0221 0002128 277.6778  82.3832 15.27592603 61627
STARLINK-34149          
1 64140U 25111T   26174.54895283  .00011211  00000+0  41615-3 0  9994
2 64140  43.0004 199.9920 0001330 287.1398  72.9308 15.27590727 61654
STARLINK-34054          
1 64141U 25111U   26174.54638596  .00008670  00000+0  32408-3 0  9992
2 64141  43.0014 199.9730 0001657 284.3911  75.6756 15.27593811 61651
STARLINK-34195          
1 64142U 25111V   26175.31945275  .00017144  00000+0  63072-3 0  9991
2 64142  42.9991 195.4548 0001021 272.9713  87.1022 15.27598474 61777
STARLINK-34133          
1 64143U 25111W   26174.79250601  .00012952  00000+0  47910-3 0  9990
2 64143  43.0047 198.3855 0002507 291.6318  68.4267 15.27596748 61690
STARLINK-34181          
1 64144U 25111X   26174.35665046  .00009535  00000+0  35556-3 0  9992
2 64144  42.9988 201.1262 0001543 270.3625  89.7050 15.27582057 61629
STARLINK-34186          
1 64145U 25111Y   26174.10409849  .00010600  00000+0  39411-3 0  9992
2 64145  42.9985 202.6726 0001310 269.7447  90.3255 15.27583615 61585
