OBJECT_NAME,OBJECT_ID,EPOCH,MEAN_MOTION,ECCENTRICITY,INCLINATION,RA_OF_ASC_NODE,ARG_OF_PERICENTER,MEAN_ANOMALY,EPHEMERIS_TYPE,CLASSIFICATION_TYPE,NORAD_CAT_ID,ELEMENT_SET_NO,REV_AT_EPOCH,BSTAR,MEAN_MOTION_DOT,MEAN_MOTION_DDOT
STARLINK-34122,2025-110X,2026-06-23T12:05:01.040064,15.31715071,.00010858,53.1576,254.5158,77.5152,282.5970,0,U,64117,999,6208,.55081347E-3,.16774E-3,0
STARLINK-33964,2025-110Y,2026-06-23T22:09:34.623360,15.31708755,.00015398,53.1566,252.8679,59.4395,300.6758,0,U,64118,999,6215,.4301365E-3,.13009E-3,0
STARLINK-34160,2025-110Z,2026-06-23T11:45:15.236352,15.34409531,.00009432,53.1585,250.1611,80.9706,279.1404,0,U,64119,999,6215,.49070683E-3,.16244E-3,0
STARLINK-34151,2025-110AA,2026-06-23T22:10:50.682144,15.30943452,.00008403,53.1595,253.5848,51.3170,308.7906,0,U,64120,999,6214,.9572441E-3,.28762E-3,0
STARLINK-34189,2025-110AB,2026-06-23T22:12:59.517504,15.30198287,.00010208,53.1578,253.5920,88.1620,271.9498,0,U,64121,999,6214,.87544217E-3,.25657E-3,0
STARLINK-33991,2025-110AC,2026-06-23T22:49:46.267680,15.31718180,.00015137,53.1578,252.3349,55.0239,305.0904,0,U,64122,999,6215,.46766222E-3,.14183E-3,0
STARLINK-11727 [DTC],2025-111A,2026-06-23T23:43:53.383584,15.71005745,.00027637,43.0011,53.4352,260.2081,99.8474,0,U,64123,999,6335,.16435084E-2,.217572E-2,0
STARLINK-11724 [DTC],2025-111B,2026-06-23T22:58:01.166016,15.70919899,.00011803,43.0003,53.1771,250.1293,109.9447,0,U,64124,999,6335,.12263554E-2,.160521E-2,0
STARLINK-11725 [DTC],2025-111C,2026-06-23T01:59:07.351872,15.70874674,.00014154,42.9999,58.6715,260.2888,99.7819,0,U,64125,999,6321,.14371545E-2,.188473E-2,0
STARLINK-11717 [DTC],2025-111D,2026-06-23T23:28:35.891616,15.70860007,.00022378,43.0011,53.3464,277.5397,82.5216,0,U,64126,999,6330,.18021621E-2,.237733E-2,0
STARLINK-11721 [DTC],2025-111E,2026-06-23T22:35:05.517312,15.70970515,.00006328,42.9977,53.0499,242.8482,117.2322,0,U,64127,999,6335,.12653368E-2,.166105E-2,0
STARLINK-11722 [DTC],2025-111F,2026-06-23T23:05:39.680448,15.70862516,.00010644,43.0000,53.2178,263.8409,96.2337,0,U,64128,999,6330,.14452079E-2,.189457E-2,0
STARLINK-11679 [DTC],2025-111G,2026-06-23T22:42:43.542720,15.70855870,.0001378,43.0031,53.0899,250.0544,110.0176,0,U,64129,999,6335,.11268908E-2,.146825E-2,0
STARLINK-11735 [DTC],2025-111H,2026-06-23T23:13:18.645024,15.70857955,.00060583,43.0014,53.2594,284.4206,75.5989,0,U,64130,999,6320,.17488911E-2,.230622E-2,0
STARLINK-11720 [DTC],2025-111J,2026-06-23T22:50:22.332768,15.70928539,.00013503,43.0003,53.1311,250.8530,109.2192,0,U,64131,999,6330,.13362972E-2,.175331E-2,0
STARLINK-11718 [DTC],2025-111K,2026-06-23T16:00:01.999584,15.70865453,.00017826,43.0012,55.3828,254.3933,76.7020,0,U,64132,999,584,-.68060947E-3,-.86969E-3,0
STARLINK-11716 [DTC],2025-111L,2026-06-23T00:42:50.818176,15.70872070,.00023094,43.0015,59.1328,266.6610,93.3993,0,U,64133,999,6325,.14366985E-2,.188397E-2,0
STARLINK-11714 [DTC],2025-111M,2026-06-23T22:27:26.004096,15.70922591,.00013158,42.9982,53.0035,256.4880,103.5841,0,U,64134,999,6335,.11499693E-2,.150327E-2,0
STARLINK-11712 [DTC],2025-111N,2026-06-23T00:58:08.333472,15.70866895,.00019683,43.0002,59.2196,270.6044,89.4598,0,U,64135,999,6320,.13806118E-2,.180816E-2,0
STARLINK-34254,2025-111P,2026-06-23T12:40:52.724064,15.27597947,.00022245,43.0030,199.8437,287.1922,72.8686,0,U,64136,999,6165,.39637445E-3,.10667E-3,0
STARLINK-34230,2025-111Q,2026-06-24T06:00:02.000160,15.89693514,.00234469,42.9799,154.9389,139.0033,64.2023,0,U,64137,999,599,.52072805E-3,.160768E-2,.17571718E-4
STARLINK-34129,2025-111R,2026-06-23T18:20:42.967680,15.27583279,.00013786,42.9989,199.0299,272.9643,87.1051,0,U,64138,999,6173,.17456029E-3,.4545E-4,0
STARLINK-34212,2025-111S,2026-06-23T08:13:13.010016,15.27592603,.00021285,42.9993,201.0221,277.6778,82.3832,0,U,64139,999,6162,.41326426E-3,.11132E-3,0
STARLINK-34149,2025-111T,2026-06-23T13:10:29.524512,15.27590727,.00013305,43.0004,199.9920,287.1398,72.9308,0,U,64140,999,6165,.41614991E-3,.11211E-3,0
STARLINK-34054,2025-111U,2026-06-23T13:06:47.746944,15.27593811,.00016576,43.0014,199.9730,284.3911,75.6756,0,U,64141,999,6165,.32408356E-3,.867E-4,0
STARLINK-34195,2025-111V,2026-06-24T07:40:00.717600,15.27598474,.00010214,42.9991,195.4548,272.9713,87.1022,0,U,64142,999,6177,.63072244E-3,.17144E-3,0
STARLINK-34133,2025-111W,2026-06-23T19:01:12.519264,15.27596748,.00025079,43.0047,198.3855,291.6318,68.4267,0,U,64143,999,6169,.47910385E-3,.12952E-3,0
STARLINK-34181,2025-111X,2026-06-23T08:33:34.599744,15.27582057,.00015435,42.9988,201.1262,270.3625,89.7050,0,U,64144,999,6162,.35555851E-3,.9535E-4,0
STARLINK-34186,2025-111Y,2026-06-23T02:29:54.109536,15.27583615,.00013101,42.9985,202.6726,269.7447,90.3255,0,U,64145,999,6158,.39410545E-3,.106E-3,0
